{
"type": "FeatureCollection",
"name": "event_venues",
"crs": { "type": "name", "properties": { "name": "urn:ogc:def:crs:OGC:1.3:CRS84" } },
"features": [
    { "type": "Feature", "properties": 
        { "venue_id": "venue_001", 
           "venue_name": "Fyal Central", 
           "location_type": null,
            "venue_type": "cafe",
            "venue_category": "indoor",
            "address": "Geisbergweg 8, 48145 Münster",
            "min_capacity": 10,
            "max_capacity": 35,
            "has_restrooms": true,
            "available_weekends": true,
            "available_evenings": true,
            "alcohol_allowed": true,
            "food_allowed": true,
            "permit": false,
            "noise_restrictions": "moderate",
            "contact_phone": "0251 7036363",
            "contact_email": "hallo@fyalcentral.de",
            "website": "https://www.fyalcentral.de/",
            "suitable_for": ["meetings", "workshops", "social_events", "birthdays"],
            "atmosphere": "casual",
            "notes": "Cozy café with separate event room. Coffee and snacks included."
     },
     "geometry": { "type": "Point", "coordinates": [ 7.625961122079876, 51.961502302279975 ] }
     },
     { "type": "Feature", "properties": 
        { "venue_id": "venue_002", 
           "venue_name": "Botanischer Garten - Gathering Area", 
           "location_type": null,
            "venue_type": "botanical_garden",
            "venue_category": "outdoor",
            "address": "Schlossgarten 3, 48149 Münster",
            "min_capacity": 10,
            "max_capacity": 35,
            "has_restrooms": true,
            "available_weekends": true,
            "available_evenings": false,
            "alcohol_allowed": false,
            "food_allowed": true,
            "permit": false,
            "noise_restrictions": "strict",
            "contact_phone": "+49 251 83-23829",
            "contact_email": "botanischer.garten@uni-muenster.de",
            "website": "https://www.uni-muenster.de/BotanischerGarten",
            "suitable_for": ["small_gatherings", "educational_events", "photo_sessions"],
            "atmosphere": "peaceful",
            "notes": "Beautiful natural setting. Quiet events only. No amplified sound."
     },
     "geometry": { "type": "Point", "coordinates": [ 7.609748183385485, 51.96407379029595 ] }
     },
     { "type": "Feature", "properties": 
        { "venue_id": "venue_003", 
           "venue_name": "Wienburg Park - Picnic Zone", 
           "location_type": null,
            "venue_type": "park",
            "venue_category": "outdoor",
            "address": "Wienburgstraße, 48147 Münster",
            "min_capacity": 10,
            "max_capacity": 150,
            "has_restrooms": false,
            "available_weekends": true,
            "available_evenings": true,
            "alcohol_allowed": true,
            "food_allowed": true,
            "permit": false,
            "noise_restrictions": "moderate",
            "contact_phone": "",
            "contact_email": "",
            "website": "",
            "suitable_for": ["picnics", "informal_gatherings", "sports_events"],
            "atmosphere": "casual",
            "notes": "Free public park. No booking needed. Bring your own equipment."
     },
     "geometry": { "type": "Point", "coordinates": [ 7.624802700000413, 51.98214949172298 ] }
     },
     { "type": "Feature", "properties": 
        { "venue_id": "venue_004", 
           "venue_name": "Hotel Mauritzhof - Conference Room", 
           "location_type": null,
            "venue_type": "hotel",
            "venue_category": "indoor",
            "address": "Eisenbahnstraße 17, 48143 Münster",
            "min_capacity": 20,
            "max_capacity": 80,
            "has_restrooms": true,
            "available_weekends": true,
            "available_evenings": true,
            "alcohol_allowed": true,
            "food_allowed": true,
            "permit": false,
            "noise_restrictions": "none",
        "contact_phone": "+49 251 41720",
        "contact_email": "info@hotel-mauritzhof.de",
        "website": "https://www.hotel-mauritzhof.de",
        "suitable_for": ["meetings", "conferences", "training", "corporate_events"],
        "atmosphere": "professional",
        "notes": "Professional hotel conference room. Catering service available."
     },
     "geometry": { "type": "Point", "coordinates": [7.635106924942268, 51.96156382981966] }
     },
     { "type": "Feature", "properties": 
        { "venue_id": "venue_005", 
           "venue_name": "Bürgerhaus Bennohaus", 
           "location_type": null,
            "venue_type": "community_center",
            "venue_category": "indoor",
            "address": "Bennostraße 5, 48155 Münster",
            "min_capacity": 15,
            "max_capacity": 70,
            "has_restrooms": true,
            "available_weekends": true,
            "available_evenings": true,
            "alcohol_allowed": true,
            "food_allowed": true,
            "permit": false,
            "noise_restrictions": "moderate",
        "contact_phone": "+49 251 484486",
        "contact_email": "info@bennohaus.de",
        "website": "https://www.bennohaus.de",
        "suitable_for": ["community_meetings", "workshops", "cultural_events", "youth_events"],
        "atmosphere": "community",
        "notes": "Community-focused space. Non-profit rates available."
     },
     "geometry": { "type": "Point", "coordinates": [7.653077431893266, 51.95443601408472] }
     },
     { "type": "Feature", "properties": 
        { "venue_id": "venue_006", 
           "venue_name": "a.cat Kollektiv für Kultur, Café und Kneipe", 
           "location_type": null,
            "venue_type": "community_center",
            "venue_category": "indoor",
            "address": "Herwarthstraße 7, 48143 Münster",
            "min_capacity": 15,
            "max_capacity": 70,
            "has_restrooms": true,
            "available_weekends": true,
            "available_evenings": true,
            "alcohol_allowed": true,
            "food_allowed": true,
            "permit": false,
            "noise_restrictions": "moderate",
        "contact_phone": "+49 251 484486",
        "contact_email": "info@a-cat.ms",
        "website": "https://a-cat.ms/",
        "suitable_for": ["community_meetings", "workshops", "cultural_events", "youth_events"],
        "atmosphere": "community",
        "notes": "Community-focused space. Non-profit rates available."
     },
     "geometry": { "type": "Point", "coordinates": [7.632460107340473, 51.95620959205276] }
     },
     { "type": "Feature", "properties": 
        { "venue_id": "venue_007", 
           "venue_name": "Aasee Park", 
           "location_type": null,
            "venue_type": "park",
            "venue_category": "outdoor",
            "address": "Annette-Allee 7, 48149 Münster",
            "min_capacity": 15,
            "max_capacity": 70,
            "has_restrooms": false,
            "available_weekends": true,
            "available_evenings": true,
            "alcohol_allowed": true,
            "food_allowed": true,
            "permit": false,
            "noise_restrictions": "strict",
         "contact_phone": "",
            "contact_email": "",
            "website": "",
            "suitable_for": ["picnics", "informal_gatherings", "sports_events"],
            "atmosphere": "casual",
            "notes": "Free public park. No booking needed. Bring your own equipment."
     },
     "geometry": { "type": "Point", "coordinates": [7.613015429404698, 51.95709885031242] }
     },
     { "type": "Feature", "properties": 
        { "venue_id": "venue_008", 
           "venue_name": "Theater Münster", 
           "location_type": null,
            "venue_type": "theater",
            "venue_category": "indoor",
            "address": "Neubrückenstraße 63, 48143 Münster",
            "min_capacity": 15,
            "max_capacity": 70,
            "has_restrooms": true,
            "available_weekends": true,
            "available_evenings": true,
            "alcohol_allowed": false,
            "food_allowed": false,
            "permit": true,
            "noise_restrictions": "strict",
         "contact_phone": "0251 5909100",
            "contact_email": "theaterkasse@stadt-muenster.de",
            "website": "https://www.theater-muenster.com/",
            "suitable_for": ["music_festivals", "opera", "formal_gatherings"],
            "atmosphere": "formal",
            "notes": "A high-end event space for formal gatherings."
     },
     "geometry": { "type": "Point", "coordinates": [7.629298119848575, 51.964949344584085] }
     },
        { "type": "Feature", "properties": 
        { "venue_id": "venue_009", 
           "venue_name": "Köpi Stuben | Gaststätte | Restaurant | Biergarten", 
           "location_type": null,
            "venue_type": "restaurant",
            "venue_category": "indoor and outdoor",
            "address": "Bergstraße 73, 48143 Münster",
            "min_capacity": 5,
            "max_capacity": 60,
            "has_restrooms": true,
            "available_weekends": true,
            "available_evenings": true,
            "alcohol_allowed": true,
            "food_allowed": true,
            "permit": false,
            "noise_restrictions": "moderate",
         "contact_phone": "+49 (0) 251 563 50",
            "contact_email": " info@koepi-stuben.de",
            "website": "https://www.koepi-stuben.de/",
            "suitable_for": ["meetings", "social_events", "birthdays"],
            "atmosphere": "casual",
            "notes": "Cosy restaurant serving traditional German food."
     },
     "geometry": { "type": "Point", "coordinates": [7.62652212027907, 51.9645567910459] }
     }
]
}